{
    "links": {
        "self": "http://www.neowsapp.com/rest/v1/neo/3956447?api_key=iIulBulltgU6a56xZRHN4H3l9WmuAYTsLGpBGhQ2"
    },
    "id": "3956447",
    "neo_reference_id": "3956447",
    "name": "(2019 YO3)",
    "designation": "2019 YO3",
    "nasa_jpl_url": "http://ssd.jpl.nasa.gov/sbdb.cgi?sstr=3956447",
    "absolute_magnitude_h": 27.2,
    "estimated_diameter": {
        "kilometers": {
            "estimated_diameter_min": 0.0096506147,
            "estimated_diameter_max": 0.0215794305
        },
        "meters": {
            "estimated_diameter_min": 9.6506146958,
            "estimated_diameter_max": 21.5794304844
        },
        "miles": {
            "estimated_diameter_min": 0.0059966121,
            "estimated_diameter_max": 0.0134088323
        },
        "feet": {
            "estimated_diameter_min": 31.6621227185,
            "estimated_diameter_max": 70.7986587106
        }
    },
    "is_potentially_hazardous_asteroid": false,
    "close_approach_data": [
        {
            "close_approach_date": "2019-12-25",
            "close_approach_date_full": "2019-Dec-25 19:02",
            "epoch_date_close_approach": 1577300520000,
            "relative_velocity": {
                "kilometers_per_second": "7.1916690311",
                "kilometers_per_hour": "25890.0085118863",
                "miles_per_hour": "16087.0444556218"
            },
            "miss_distance": {
                "astronomical": "0.0109831498",
                "lunar": "4.2724452722",
                "kilometers": "1643055.815970926",
                "miles": "1020947.5420777388"
            },
            "orbiting_body": "Earth"
        }
    ],
    "orbital_data": {
        "orbit_id": "3",
        "orbit_determination_date": "2020-01-03 05:36:49",
        "first_observation_date": "2019-12-28",
        "last_observation_date": "2020-01-03",
        "data_arc_in_days": 6,
        "observations_used": 23,
        "orbit_uncertainty": "8",
        "minimum_orbit_intersection": ".00986942",
        "jupiter_tisserand_invariant": "3.738",
        "epoch_osculation": "2458847.5",
        "eccentricity": ".4932554738347941",
        "semi_major_axis": "1.943211857358645",
        "inclination": "4.27996732558319",
        "ascending_node_longitude": "276.4594702213514",
        "orbital_period": "989.4153746444692",
        "perihelion_distance": ".9847119718958163",
        "perihelion_argument": "163.6670827299338",
        "aphelion_distance": "2.901711742821474",
        "perihelion_time": "2458832.597098717298",
        "mean_anomaly": "5.422438946535033",
        "mean_motion": ".3638512289435166",
        "equinox": "J2000",
        "orbit_class": {
            "orbit_class_type": "APO",
            "orbit_class_description": "Near-Earth asteroid orbits which cross the Earth’s orbit similar to that of 1862 Apollo",
            "orbit_class_range": "a (semi-major axis) > 1.0 AU; q (perihelion) < 1.017 AU"
        }
    },
    "is_sentry_object": false
}